[{"OBJECT_NAME":"KUIPER-00297","OBJECT_ID":"2026-072Z","EPOCH":"2026-04-21T16:09:22.901472","MEAN_MOTION":15.36232055,"ECCENTRICITY":0.00095476,"INCLINATION":51.8638,"RA_OF_ASC_NODE":90.3909,"ARG_OF_PERICENTER":178.7497,"MEAN_ANOMALY":181.3515,"EPHEMERIS_TYPE":0,"CLASSIFICATION_TYPE":"U","NORAD_CAT_ID":68596,"ELEMENT_SET_NO":999,"REV_AT_EPOCH":268,"BSTAR":0.00086956395,"MEAN_MOTION_DOT":0.00030964,"MEAN_MOTION_DDOT":0},{"OBJECT_NAME":"KUIPER-00300","OBJECT_ID":"2026-072AA","EPOCH":"2026-04-21T15:58:00.892704","MEAN_MOTION":15.36965497,"ECCENTRICITY":0.00078403,"INCLINATION":51.8688,"RA_OF_ASC_NODE":90.3451,"ARG_OF_PERICENTER":171.4448,"MEAN_ANOMALY":188.6674,"EPHEMERIS_TYPE":0,"CLASSIFICATION_TYPE":"U","NORAD_CAT_ID":68597,"ELEMENT_SET_NO":999,"REV_AT_EPOCH":268,"BSTAR":0.00060450553,"MEAN_MOTION_DOT":0.00021889,"MEAN_MOTION_DDOT":0},{"OBJECT_NAME":"KUIPER-00301","OBJECT_ID":"2026-072AB","EPOCH":"2026-04-21T16:03:12.602304","MEAN_MOTION":15.36636062,"ECCENTRICITY":0.00084972,"INCLINATION":51.8666,"RA_OF_ASC_NODE":90.3661,"ARG_OF_PERICENTER":174.4568,"MEAN_ANOMALY":185.6514,"EPHEMERIS_TYPE":0,"CLASSIFICATION_TYPE":"U","NORAD_CAT_ID":68598,"ELEMENT_SET_NO":999,"REV_AT_EPOCH":268,"BSTAR":0.00059517234,"MEAN_MOTION_DOT":0.00021316,"MEAN_MOTION_DDOT":0},{"OBJECT_NAME":"KUIPER-00304","OBJECT_ID":"2026-072AC","EPOCH":"2026-04-21T12:57:20.994912","MEAN_MOTION":15.36542302,"ECCENTRICITY":0.00091675,"INCLINATION":51.8674,"RA_OF_ASC_NODE":91.0024,"ARG_OF_PERICENTER":174.3898,"MEAN_ANOMALY":185.7192,"EPHEMERIS_TYPE":0,"CLASSIFICATION_TYPE":"U","NORAD_CAT_ID":68599,"ELEMENT_SET_NO":999,"REV_AT_EPOCH":266,"BSTAR":0.00065757133,"MEAN_MOTION_DOT":0.00023531,"MEAN_MOTION_DDOT":0},{"OBJECT_NAME":"KUIPER-00317","OBJECT_ID":"2026-072AD","EPOCH":"2026-04-21T12:52:29.610912","MEAN_MOTION":15.36799773,"ECCENTRICITY":0.00085076,"INCLINATION":51.8696,"RA_OF_ASC_NODE":90.9821,"ARG_OF_PERICENTER":167.2378,"MEAN_ANOMALY":192.8825,"EPHEMERIS_TYPE":0,"CLASSIFICATION_TYPE":"U","NORAD_CAT_ID":68600,"ELEMENT_SET_NO":999,"REV_AT_EPOCH":266,"BSTAR":0.00016621265,"MEAN_MOTION_DOT":5.689e-5,"MEAN_MOTION_DDOT":0},{"OBJECT_NAME":"KUIPER-00320","OBJECT_ID":"2026-072AE","EPOCH":"2026-04-21T09:58:11.088768","MEAN_MOTION":15.36039635,"ECCENTRICITY":0.00109934,"INCLINATION":51.8609,"RA_OF_ASC_NODE":91.6597,"ARG_OF_PERICENTER":179.5711,"MEAN_ANOMALY":180.5286,"EPHEMERIS_TYPE":0,"CLASSIFICATION_TYPE":"U","NORAD_CAT_ID":68601,"ELEMENT_SET_NO":999,"REV_AT_EPOCH":264,"BSTAR":0.00069056771,"MEAN_MOTION_DOT":0.00024347,"MEAN_MOTION_DDOT":0},{"OBJECT_NAME":"STARLINK-37135","OBJECT_ID":"2026-073A","EPOCH":"2026-04-22T12:34:49.610784","MEAN_MOTION":15.7520664,"ECCENTRICITY":0.0001203,"INCLINATION":97.2852,"RA_OF_ASC_NODE":310.4101,"ARG_OF_PERICENTER":86.314,"MEAN_ANOMALY":273.8262,"EPHEMERIS_TYPE":0,"CLASSIFICATION_TYPE":"U","NORAD_CAT_ID":68602,"ELEMENT_SET_NO":999,"REV_AT_EPOCH":245,"BSTAR":0.00045634219,"MEAN_MOTION_DOT":0.00068533,"MEAN_MOTION_DDOT":0},{"OBJECT_NAME":"STARLINK-37189","OBJECT_ID":"2026-073B","EPOCH":"2026-04-22T12:06:15.803712","MEAN_MOTION":15.80870979,"ECCENTRICITY":0.00010602,"INCLINATION":97.2839,"RA_OF_ASC_NODE":310.4372,"ARG_OF_PERICENTER":67.6597,"MEAN_ANOMALY":292.4783,"EPHEMERIS_TYPE":0,"CLASSIFICATION_TYPE":"U","NORAD_CAT_ID":68603,"ELEMENT_SET_NO":999,"REV_AT_EPOCH":245,"BSTAR":0.00058378421,"MEAN_MOTION_DOT":0.00113428,"MEAN_MOTION_DDOT":0},{"OBJECT_NAME":"STARLINK-37130","OBJECT_ID":"2026-073C","EPOCH":"2026-04-24T00:00:02.999808","MEAN_MOTION":15.75171626,"ECCENTRICITY":0.00013315,"INCLINATION":97.2855,"RA_OF_ASC_NODE":311.9825,"ARG_OF_PERICENTER":97.9956,"MEAN_ANOMALY":43.5389,"EPHEMERIS_TYPE":0,"CLASSIFICATION_TYPE":"U","NORAD_CAT_ID":68604,"ELEMENT_SET_NO":999,"REV_AT_EPOCH":381,"BSTAR":0.00017747253,"MEAN_MOTION_DOT":0.00026402,"MEAN_MOTION_DDOT":0},{"OBJECT_NAME":"STARLINK-37131","OBJECT_ID":"2026-073D","EPOCH":"2026-04-22T15:06:24.391008","MEAN_MOTION":15.80851396,"ECCENTRICITY":0.00016667,"INCLINATION":97.2842,"RA_OF_ASC_NODE":310.5727,"ARG_OF_PERICENTER":111.7461,"MEAN_ANOMALY":248.3985,"EPHEMERIS_TYPE":0,"CLASSIFICATION_TYPE":"U","NORAD_CAT_ID":68605,"ELEMENT_SET_NO":999,"REV_AT_EPOCH":247,"BSTAR":0.00037034652,"MEAN_MOTION_DOT":0.00071498,"MEAN_MOTION_DDOT":0},{"OBJECT_NAME":"STARLINK-37253","OBJECT_ID":"2026-073E","EPOCH":"2026-04-21T22:22:37.829856","MEAN_MOTION":15.80876866,"ECCENTRICITY":0.00011784,"INCLINATION":97.2843,"RA_OF_ASC_NODE":309.8375,"ARG_OF_PERICENTER":60.3989,"MEAN_ANOMALY":299.7396,"EPHEMERIS_TYPE":0,"CLASSIFICATION_TYPE":"U","NORAD_CAT_ID":68606,"ELEMENT_SET_NO":999,"REV_AT_EPOCH":236,"BSTAR":0.0014075561,"MEAN_MOTION_DOT":0.00279051,"MEAN_MOTION_DDOT":0},{"OBJECT_NAME":"STARLINK-37246","OBJECT_ID":"2026-073F","EPOCH":"2026-04-22T14:00:12.477600","MEAN_MOTION":15.75193008,"ECCENTRICITY":0.00013601,"INCLINATION":97.2845,"RA_OF_ASC_NODE":310.4821,"ARG_OF_PERICENTER":94.5888,"MEAN_ANOMALY":265.5532,"EPHEMERIS_TYPE":0,"CLASSIFICATION_TYPE":"U","NORAD_CAT_ID":68607,"ELEMENT_SET_NO":999,"REV_AT_EPOCH":246,"BSTAR":0.00019631299,"MEAN_MOTION_DOT":0.00029256,"MEAN_MOTION_DDOT":0},{"OBJECT_NAME":"STARLINK-37243","OBJECT_ID":"2026-073G","EPOCH":"2026-04-22T15:03:09.700704","MEAN_MOTION":15.80844114,"ECCENTRICITY":0.00014766,"INCLINATION":97.2844,"RA_OF_ASC_NODE":310.5759,"ARG_OF_PERICENTER":89.7349,"MEAN_ANOMALY":270.4088,"EPHEMERIS_TYPE":0,"CLASSIFICATION_TYPE":"U","NORAD_CAT_ID":68608,"ELEMENT_SET_NO":999,"REV_AT_EPOCH":247,"BSTAR":0.00027653965,"MEAN_MOTION_DOT":0.00053221,"MEAN_MOTION_DDOT":0},{"OBJECT_NAME":"STARLINK-37250","OBJECT_ID":"2026-073H","EPOCH":"2026-04-21T23:50:32.529984","MEAN_MOTION":15.80855884,"ECCENTRICITY":0.00014302,"INCLINATION":97.2843,"RA_OF_ASC_NODE":309.9072,"ARG_OF_PERICENTER":86.9525,"MEAN_ANOMALY":273.1907,"EPHEMERIS_TYPE":0,"CLASSIFICATION_TYPE":"U","NORAD_CAT_ID":68609,"ELEMENT_SET_NO":999,"REV_AT_EPOCH":237,"BSTAR":0.0010476898,"MEAN_MOTION_DOT":0.00205718,"MEAN_MOTION_DDOT":0},{"OBJECT_NAME":"STARLINK-37105","OBJECT_ID":"2026-073J","EPOCH":"2026-04-24T06:00:02.000160","MEAN_MOTION":15.75231966,"ECCENTRICITY":0.00015885,"INCLINATION":97.2858,"RA_OF_ASC_NODE":312.2602,"ARG_OF_PERICENTER":94.4001,"MEAN_ANOMALY":59.7573,"EPHEMERIS_TYPE":0,"CLASSIFICATION_TYPE":"U","NORAD_CAT_ID":68610,"ELEMENT_SET_NO":999,"REV_AT_EPOCH":377,"BSTAR":-0.00061219844,"MEAN_MOTION_DOT":-0.00090649,"MEAN_MOTION_DDOT":0},{"OBJECT_NAME":"STARLINK-37177","OBJECT_ID":"2026-073K","EPOCH":"2026-04-22T13:28:45.374592","MEAN_MOTION":15.80885387,"ECCENTRICITY":0.00012712,"INCLINATION":97.2842,"RA_OF_ASC_NODE":310.5119,"ARG_OF_PERICENTER":80.6566,"MEAN_ANOMALY":279.4846,"EPHEMERIS_TYPE":0,"CLASSIFICATION_TYPE":"U","NORAD_CAT_ID":68611,"ELEMENT_SET_NO":999,"REV_AT_EPOCH":246,"BSTAR":0.00075373752,"MEAN_MOTION_DOT":0.0014716,"MEAN_MOTION_DDOT":0}]
