KUIPER-00297            
1 68596U 26072Z   26111.67318173  .00030964  00000+0  86956-3 0  9996
2 68596  51.8638  90.3909 0009547 178.7497 181.3515 15.36232055  2687
KUIPER-00300            
1 68597U 26072AA  26111.66528811  .00021889  00000+0  60451-3 0  9996
2 68597  51.8688  90.3451 0007840 171.4448 188.6674 15.36965497  2684
KUIPER-00301            
1 68598U 26072AB  26111.66889586  .00021316  00000+0  59517-3 0  9992
2 68598  51.8666  90.3661 0008497 174.4568 185.6514 15.36636062  2682
KUIPER-00304            
1 68599U 26072AC  26111.53982633  .00023531  00000+0  65757-3 0  9990
2 68599  51.8674  91.0024 0009167 174.3898 185.7192 15.36542302  2667
KUIPER-00317            
1 68600U 26072AD  26111.53645383  .00005689  00000+0  16621-3 0  9991
2 68600  51.8696  90.9821 0008507 167.2378 192.8825 15.36799773  2666
KUIPER-00320            
1 68601U 26072AE  26111.41540612  .00024347  00000+0  69057-3 0  9991
2 68601  51.8609  91.6597 0010993 179.5711 180.5286 15.36039635  2645
STARLINK-37135          
1 68602U 26073A   26112.52418531  .00068533  00000+0  45634-3 0  9990
2 68602  97.2852 310.4101 0001203  86.3140 273.8262 15.75206640  2452
STARLINK-37189          
1 68603U 26073B   26112.50434958  .00113428  00000+0  58378-3 0  9993
2 68603  97.2839 310.4372 0001060  67.6597 292.4783 15.80870979  2450
STARLINK-37130          
1 68604U 26073C   26114.00003472  .00026402  00000+0  17747-3 0  9994
2 68604  97.2855 311.9825 0001331  97.9956  43.5389 15.75171626  3819
STARLINK-37131          
1 68605U 26073D   26112.62944897  .00071498  00000+0  37035-3 0  9993
2 68605  97.2842 310.5727 0001666 111.7461 248.3985 15.80851396  2472
STARLINK-37253          
1 68606U 26073E   26111.93238229  .00279051  00000+0  14076-2 0  9996
2 68606  97.2843 309.8375 0001178  60.3989 299.7396 15.80876866  2369
STARLINK-37246          
1 68607U 26073F   26112.58347775  .00029256  00000+0  19631-3 0  9999
2 68607  97.2845 310.4821 0001360  94.5888 265.5532 15.75193008  2464
STARLINK-37243          
1 68608U 26073G   26112.62719561  .00053221  00000+0  27654-3 0  9994
2 68608  97.2844 310.5759 0001476  89.7349 270.4088 15.80844114  2470
STARLINK-37250          
1 68609U 26073H   26111.99343206  .00205718  00000+0  10477-2 0  9997
2 68609  97.2843 309.9072 0001430  86.9525 273.1907 15.80855884  2370
STARLINK-37105          
1 68610U 26073J   26114.25002315 -.00090649  00000+0 -61220-3 0  9994
2 68610  97.2858 312.2602 0001588  94.4001  59.7573 15.75231966  3776
STARLINK-37177          
1 68611U 26073K   26112.56163628  .00147160  00000+0  75374-3 0  9996
2 68611  97.2842 310.5119 0001271  80.6566 279.4846 15.80885387  2463
